{"type": "FeatureCollection", "features": [ {"type": "Feature", "properties": {"norad_id": 31198, "name": "FENGYUN 1C DEB", "group": "fengyun-1c-debris", "lat": 37.79126639305704, "lon": 79.44304661159232, "alt_km": 851.1019059152104, "timestamp": "2025-12-07T20:38:14.344632+00:00", "meta": {"OBJECT_NAME": "FENGYUN 1C DEB", "OBJECT_ID": "1999-025BKC", "EPOCH": "2025-12-07T01:15:21.985920", "MEAN_MOTION": 13.75519559, "ECCENTRICITY": 0.02041199, "INCLINATION": 98.6128, "RA_OF_ASC_NODE": 85.4619, "ARG_OF_PERICENTER": 6.8287, "MEAN_ANOMALY": 353.5573, "EPHEMERIS_TYPE": 0, "CLASSIFICATION_TYPE": "U", "NORAD_CAT_ID": 31198, "ELEMENT_SET_NO": 999, "REV_AT_EPOCH": 62675, "BSTAR": 0.00015087498, "MEAN_MOTION_DOT": 1.31e-06, "MEAN_MOTION_DDOT": 0}, "tle": {"line1": "1 31198U 99025BKC 25341.05233780  .00000131  00000+0  15087-3 0  9998", "line2": "2 31198  98.6128  85.4619 0204119   6.8287 353.5573 13.75519559626756"}}, "geometry": {"type": "Point", "coordinates": [79.44304661159232, 37.79126639305704]}}, {"type": "Feature", "properties": {"norad_id": 31199, "name": "FENGYUN 1C DEB", "group": "fengyun-1c-debris", "lat": -60.20260169978419, "lon": -19.670327086028887, "alt_km": 824.7344264289686, "timestamp": "2025-12-07T20:38:14.344642+00:00", "meta": {"OBJECT_NAME": "FENGYUN 1C DEB", "OBJECT_ID": "1999-025BKD", "EPOCH": "2025-12-05T16:58:40.008864", "MEAN_MOTION": 14.09979297, "ECCENTRICITY": 0.00635718, "INCLINATION": 98.7162, "RA_OF_ASC_NODE": 322.7056, "ARG_OF_PERICENTER": 279.9042, "MEAN_ANOMALY": 258.7122, "EPHEMERIS_TYPE": 0, "CLASSIFICATION_TYPE": "U", "NORAD_CAT_ID": 31199, "ELEMENT_SET_NO": 999, "REV_AT_EPOCH": 96060, "BSTAR": 0.00037158052, "MEAN_MOTION_DOT": 6.24e-06, "MEAN_MOTION_DDOT": 0}, "tle": {"line1": "1 31199U 99025BKD 25339.70740751  .00000624  00000+0  37158-3 0  9999", "line2": "2 31199  98.7162 322.7056 0063571 279.9042 258.7122 14.09979297960603"}}, "geometry": {"type": "Point", "coordinates": [-19.670327086028887, -60.20260169978419]}}, {"type": "Feature", "properties": {"norad_id": 31201, "name": "FENGYUN 1C DEB", "group": "fengyun-1c-debris", "lat": 68.19944585768286, "lon": 179.17665457610872, "alt_km": 722.9231611068044, "timestamp": "2025-12-07T20:38:14.344652+00:00", "meta": {"OBJECT_NAME": "FENGYUN 1C DEB", "OBJECT_ID": "1999-025BKF", "EPOCH": "2025-12-07T02:36:43.581600", "MEAN_MOTION": 14.35120203, "ECCENTRICITY": 0.01429667, "INCLINATION": 99.0021, "RA_OF_ASC_NODE": 201.7424, "ARG_OF_PERICENTER": 7.6962, "MEAN_ANOMALY": 142.8699, "EPHEMERIS_TYPE": 0, "CLASSIFICATION_TYPE": "U", "NORAD_CAT_ID": 31201, "ELEMENT_SET_NO": 999, "REV_AT_EPOCH": 97170, "BSTAR": 0.0014018644, "MEAN_MOTION_DOT": 4.444e-05, "MEAN_MOTION_DDOT": 0}, "tle": {"line1": "1 31201U 99025BKF 25341.10883775  .00004444  00000+0  14019-2 0  9998", "line2": "2 31201  99.0021 201.7424 0142966   7.6962 142.8699 14.35120203971702"}}, "geometry": {"type": "Point", "coordinates": [179.17665457610872, 68.19944585768286]}}, {"type": "Feature", "properties": {"norad_id": 31202, "name": "FENGYUN 1C DEB", "group": "fengyun-1c-debris", "lat": 79.53571832898064, "lon": -10.66793938450062, "alt_km": 626.921239825966, "timestamp": "2025-12-07T20:38:14.344663+00:00", "meta": {"OBJECT_NAME": "FENGYUN 1C DEB", "OBJECT_ID": "1999-025BKG", "EPOCH": "2025-12-07T02:35:41.950752", "MEAN_MOTION": 14.83937225, "ECCENTRICITY": 0.00678878, "INCLINATION": 96.5735, "RA_OF_ASC_NODE": 27.3465, "ARG_OF_PERICENTER": 196.2452, "MEAN_ANOMALY": 192.7864, "EPHEMERIS_TYPE": 0, "CLASSIFICATION_TYPE": "U", "NORAD_CAT_ID": 31202, "ELEMENT_SET_NO": 999, "REV_AT_EPOCH": 99071, "BSTAR": 0.0017202691, "MEAN_MOTION_DOT": 0.00014876, "MEAN_MOTION_DDOT": 0}, "tle": {"line1": "1 31202U 99025BKG 25341.10812443  .00014876  00000+0  17203-2 0  9991", "line2": "2 31202  96.5735  27.3465 0067887 196.2452 192.7864 14.83937225990714"}}, "geometry": {"type": "Point", "coordinates": [-10.66793938450062, 79.53571832898064]}}, {"type": "Feature", "properties": {"norad_id": 31205, "name": "FENGYUN 1C DEB", "group": "fengyun-1c-debris", "lat": -6.066932810463803, "lon": 75.76557245063881, "alt_km": 907.269413570395, "timestamp": "2025-12-07T20:38:14.344673+00:00", "meta": {"OBJECT_NAME": "FENGYUN 1C DEB", "OBJECT_ID": "1999-025BKK", "EPOCH": "2025-12-06T12:37:29.835264", "MEAN_MOTION": 14.23948876, "ECCENTRICITY": 0.01616395, "INCLINATION": 99.2293, "RA_OF_ASC_NODE": 73.3754, "ARG_OF_PERICENTER": 215.219, "MEAN_ANOMALY": 143.8221, "EPHEMERIS_TYPE": 0, "CLASSIFICATION_TYPE": "U", "NORAD_CAT_ID": 31205, "ELEMENT_SET_NO": 999, "REV_AT_EPOCH": 97122, "BSTAR": 0.0003123141, "MEAN_MOTION_DOT": 7.69e-06, "MEAN_MOTION_DDOT": 0}, "tle": {"line1": "1 31205U 99025BKK 25340.52603976  .00000769  00000+0  31231-3 0  9992", "line2": "2 31205  99.2293  73.3754 0161639 215.2190 143.8221 14.23948876971226"}}, "geometry": {"type": "Point", "coordinates": [75.76557245063881, -6.066932810463803]}}, {"type": "Feature", "properties": {"norad_id": 31206, "name": "FENGYUN 1C DEB", "group": "fengyun-1c-debris", "lat": 80.0148896969944, "lon": -172.54148763725797, "alt_km": 729.3499395601693, "timestamp": "2025-12-07T20:38:14.344682+00:00", "meta": {"OBJECT_NAME": "FENGYUN 1C DEB", "OBJECT_ID": "1999-025BKL", "EPOCH": "2025-12-07T05:14:38.159808", "MEAN_MOTION": 14.40459262, "ECCENTRICITY": 0.00781934, "INCLINATION": 98.8434, "RA_OF_ASC_NODE": 248.9586, "ARG_OF_PERICENTER": 18.0667, "MEAN_ANOMALY": 342.3272, "EPHEMERIS_TYPE": 0, "CLASSIFICATION_TYPE": "U", "NORAD_CAT_ID": 31206, "ELEMENT_SET_NO": 999, "REV_AT_EPOCH": 97766, "BSTAR": 0.0012536308, "MEAN_MOTION_DOT": 4.085e-05, "MEAN_MOTION_DDOT": 0}, "tle": {"line1": "1 31206U 99025BKL 25341.21849722  .00004085  00000+0  12536-2 0  9992", "line2": "2 31206  98.8434 248.9586 0078193  18.0667 342.3272 14.40459262977663"}}, "geometry": {"type": "Point", "coordinates": [-172.54148763725797, 80.0148896969944]}}, {"type": "Feature", "properties": {"norad_id": 31208, "name": "FENGYUN 1C DEB", "group": "fengyun-1c-debris", "lat": -47.597795938113336, "lon": 135.2634943630665, "alt_km": 685.1675153755223, "timestamp": "2025-12-07T20:38:14.344692+00:00", "meta": {"OBJECT_NAME": "FENGYUN 1C DEB", "OBJECT_ID": "1999-025BKN", "EPOCH": "2025-12-05T08:12:17.064288", "MEAN_MOTION": 14.61500121, "ECCENTRICITY": 0.00156947, "INCLINATION": 99.2421, "RA_OF_ASC_NODE": 122.1816, "ARG_OF_PERICENTER": 288.3899, "MEAN_ANOMALY": 101.866, "EPHEMERIS_TYPE": 0, "CLASSIFICATION_TYPE": "U", "NORAD_CAT_ID": 31208, "ELEMENT_SET_NO": 999, "REV_AT_EPOCH": 70371, "BSTAR": 0.0053426924, "MEAN_MOTION_DOT": 0.00026586, "MEAN_MOTION_DDOT": 0}, "tle": {"line1": "1 31208U 99025BKN 25339.34186417  .00026586  00000+0  53427-2 0  9994", "line2": "2 31208  99.2421 122.1816 0015694 288.3899 101.8660 14.61500121703717"}}, "geometry": {"type": "Point", "coordinates": [135.2634943630665, -47.597795938113336]}}, {"type": "Feature", "properties": {"norad_id": 31209, "name": "FENGYUN 1C DEB", "group": "fengyun-1c-debris", "lat": 63.61343450547944, "lon": -84.88869130000333, "alt_km": 747.1939197332176, "timestamp": "2025-12-07T20:38:14.344702+00:00", "meta": {"OBJECT_NAME": "FENGYUN 1C DEB", "OBJECT_ID": "1999-025BKP", "EPOCH": "2025-12-04T12:14:49.860384", "MEAN_MOTION": 14.43258413, "ECCENTRICITY": 0.0021369, "INCLINATION": 98.8853, "RA_OF_ASC_NODE": 73.2388, "ARG_OF_PERICENTER": 10.8344, "MEAN_ANOMALY": 349.3301, "EPHEMERIS_TYPE": 0, "CLASSIFICATION_TYPE": "U", "NORAD_CAT_ID": 31209, "ELEMENT_SET_NO": 999, "REV_AT_EPOCH": 64689, "BSTAR": 0.0067448, "MEAN_MOTION_DOT": 0.00022796, "MEAN_MOTION_DDOT": 0}, "tle": {"line1": "1 31209U 99025BKP 25338.51029931  .00022796  00000+0  67448-2 0  9997", "line2": "2 31209  98.8853  73.2388 0021369  10.8344 349.3301 14.43258413646891"}}, "geometry": {"type": "Point", "coordinates": [-84.88869130000333, 63.61343450547944]}}, {"type": "Feature", "properties": {"norad_id": 31210, "name": "FENGYUN 1C DEB", "group": "fengyun-1c-debris", "lat": 10.741865070715644, "lon": 164.693471906993, "alt_km": 841.7425969922324, "timestamp": "2025-12-07T20:38:14.344712+00:00", "meta": {"OBJECT_NAME": "FENGYUN 1C DEB", "OBJECT_ID": "1999-025BKQ", "EPOCH": "2025-12-06T23:33:45.751392", "MEAN_MOTION": 14.11984808, "ECCENTRICITY": 0.00169284, "INCLINATION": 98.7185, "RA_OF_ASC_NODE": 342.1717, "ARG_OF_PERICENTER": 171.3444, "MEAN_ANOMALY": 216.6115, "EPHEMERIS_TYPE": 0, "CLASSIFICATION_TYPE": "U", "NORAD_CAT_ID": 31210, "ELEMENT_SET_NO": 999, "REV_AT_EPOCH": 95886, "BSTAR": 0.00053564744, "MEAN_MOTION_DOT": 9.39e-06, "MEAN_MOTION_DDOT": 0}, "tle": {"line1": "1 31210U 99025BKQ 25340.98177953  .00000939  00000+0  53565-3 0  9992", "line2": "2 31210  98.7185 342.1717 0016928 171.3444 216.6115 14.11984808958864"}}, "geometry": {"type": "Point", "coordinates": [164.693471906993, 10.741865070715644]}}, {"type": "Feature", "properties": {"norad_id": 31211, "name": "FENGYUN 1C DEB", "group": "fengyun-1c-debris", "lat": 2.3245488245956203, "lon": -161.77907661881147, "alt_km": 817.749452273576, "timestamp": "2025-12-07T20:38:14.344722+00:00", "meta": {"OBJECT_NAME": "FENGYUN 1C DEB", "OBJECT_ID": "1999-025BKR", "EPOCH": "2025-12-06T20:08:03.397344", "MEAN_MOTION": 14.2001942, "ECCENTRICITY": 0.00510218, "INCLINATION": 98.6728, "RA_OF_ASC_NODE": 16.8654, "ARG_OF_PERICENTER": 106.1714, "MEAN_ANOMALY": 254.5086, "EPHEMERIS_TYPE": 0, "CLASSIFICATION_TYPE": "U", "NORAD_CAT_ID": 31211, "ELEMENT_SET_NO": 999, "REV_AT_EPOCH": 63209, "BSTAR": 0.001766209, "MEAN_MOTION_DOT": 3.766e-05, "MEAN_MOTION_DDOT": 0}, "tle": {"line1": "1 31211U 99025BKR 25340.83892821  .00003766  00000+0  17662-2 0  9993", "line2": "2 31211  98.6728  16.8654 0051021 106.1714 254.5086 14.20019420632092"}}, "geometry": {"type": "Point", "coordinates": [-161.77907661881147, 2.3245488245956203]}}]}